ANDESITE                
1 45726U 20037D   26068.46720933  .00004478  00000+0  31876-3 0  9992
2 45726  97.7890 260.5174 0009953 141.6473 218.5462 15.05115692310662
STARLINK-5869           
1 57061U 23088P   26068.49730513  .00000917  00000+0  82897-4 0  9998
2 57061  43.0054 108.2680 0001587 273.8154  86.2507 15.02556227149369
